OBJECT_NAME,OBJECT_ID,EPOCH,MEAN_MOTION,ECCENTRICITY,INCLINATION,RA_OF_ASC_NODE,ARG_OF_PERICENTER,MEAN_ANOMALY,EPHEMERIS_TYPE,CLASSIFICATION_TYPE,NORAD_CAT_ID,ELEMENT_SET_NO,REV_AT_EPOCH,BSTAR,MEAN_MOTION_DOT,MEAN_MOTION_DDOT
SHARJAHSAT-1,2023-001CZ,2026-06-04T21:38:56.073696,15.48584670,.00069472,97.3174,224.5018,138.9829,221.1946,0,U,55104,999,19059,.4474616E-3,.23831E-3,0
HORUS 1,2023-025A,2026-06-04T22:28:15.786912,15.23469041,.00019436,97.3461,230.7877,131.7322,228.4082,0,U,55690,999,18218,.28996011E-3,.6845E-4,0
HORUS 2,2023-032A,2026-06-04T21:43:25.614048,15.23291431,.00020576,97.3534,231.5532,116.0944,244.0505,0,U,55844,999,17961,.2929391E-3,.688E-4,0
GLOBAL-19,2023-041B,2026-06-02T19:30:51.402816,15.38861461,.00073919,42.0025,285.7177,249.6784,110.3261,0,U,55982,999,17971,.4120608E-3,.15983E-3,0
BRO-9,2023-054H,2026-06-04T11:50:32.447904,15.92548298,.00068953,97.2930,72.9431,125.6758,234.5160,0,U,56185,999,17706,.13028362E-2,.441123E-2,.77449156E-4
ION SCV-010,2023-054Q,2026-06-04T08:59:09.399840,15.26081944,.00111529,97.3793,45.0391,246.7727,113.2337,0,U,56192,999,17424,.22171898E-3,.5651E-4,0
TELEOS-2,2023-057C,2026-06-03T07:01:18.663168,14.96408330,.0001114,9.9889,305.3426,186.5335,173.4864,0,U,56310,999,17071,-.22141E-3,-.1889E-4,0
SNIPE 4,2023-072B,2026-06-04T22:48:06.782400,15.41851381,.00055869,97.5260,1.5708,25.4715,334.6806,0,U,56744,999,16822,.57630578E-3,.24413E-3,0
SNIPE 2,2023-072C,2026-06-04T23:07:10.752096,15.46221440,.00053728,97.5255,4.5447,54.7851,305.3901,0,U,56745,999,16835,.63608159E-3,.31269E-3,0
2023-072G,2023-072G,2026-06-04T23:49:33.993120,15.49856853,.00042077,97.4917,3.3651,46.2970,313.8629,0,U,56749,999,16857,.59513533E-3,.3319E-3,0
GEISAT PRECURSOR,2023-084C,2026-06-04T23:02:24.202176,15.34480412,.0006152,97.6215,296.5133,41.2832,318.8874,0,U,56934,999,16565,.26434432E-3,.875E-4,0
BLACKJACK ACES-3,2023-084U,2026-06-04T09:15:17.508384,15.18384931,.00035702,97.6203,290.4820,70.6703,289.4916,0,U,56950,999,16522,.33257693E-3,.677E-4,0
BLACKJACK ACES-2,2023-084Z,2026-06-04T06:15:13.778496,15.18442405,.00017791,97.6198,290.4391,74.6822,285.4608,0,U,56955,999,16521,.39575704E-3,.8083E-4,0
BLACKJACK ACES-1,2023-084AA,2026-06-04T05:58:05.051712,15.18431070,.00013045,97.6189,290.2023,95.8564,264.2818,0,U,56956,999,11493,.40286861E-3,.8227E-4,0
ION SCV-011,2023-084AB,2026-06-04T13:33:20.126592,15.28717670,.00085106,98.1381,341.6756,83.4199,276.8007,0,U,56957,999,16388,.21880921E-3,.6027E-4,0
GHOST-3,2023-084AC,2026-06-03T23:22:14.426976,15.47432981,.00057647,97.6204,302.8427,350.6857,9.4284,0,U,56958,999,16597,.36922078E-3,.18854E-3,0
TOMORROW-R2,2023-084AG,2026-06-04T05:53:23.104320,15.97909805,.00049986,97.5969,317.6748,253.0565,107.0164,0,U,56962,999,16698,.74258562E-3,.334497E-2,.47880062E-4
AFR-1,2023-084AJ,2026-06-04T22:11:47.870304,15.28448033,.00110746,97.6264,292.3229,29.9765,330.2106,0,U,56964,999,16535,.19514682E-3,.5333E-4,0
METEOR-M2 3,2023-091A,2026-06-04T22:38:02.929344,14.24045759,.00036417,98.6086,211.1714,188.9260,171.1855,0,U,57166,999,15277,.24992405E-4,.14E-6,0
UMKA 1 (RS40S),2023-091G,2026-06-04T22:06:20.213856,15.20670086,.00135397,97.5050,214.6665,156.5250,203.6606,0,U,57172,999,16214,.33519451E-3,.731E-4,0
2023-091H,2023-091H,2026-06-04T22:34:54.700032,15.28358566,.00108293,97.5049,219.0360,150.6933,209.4916,0,U,57173,999,16243,.47695972E-3,.13127E-3,0
2023-091J,2023-091J,2026-06-04T21:27:48.200832,15.13839943,.00132029,97.5056,209.1663,183.5293,176.5848,0,U,57174,999,16177,.27155806E-3,.4852E-4,0
CUBEBEL 2 (EU11S),2023-091K,2026-06-04T21:07:41.276640,15.28845692,.00108336,97.5051,218.9900,152.5530,207.6284,0,U,57175,999,16242,.49397848E-3,.13804E-3,0
SITRO-AIS 5 (KATYS),2023-091L,2026-06-04T21:35:46.483584,15.29160745,.00125499,97.5061,219.6848,141.5242,218.6895,0,U,57176,999,16246,.48633463E-3,.13729E-3,0
ZORKIY-2M 1,2023-091M,2026-06-04T21:47:37.153824,15.20735514,.00141678,97.5092,214.9136,153.9769,206.2181,0,U,57177,999,16213,.38900072E-3,.8515E-4,0
CUBESX-HSE 3 (RS42S),2023-091N,2026-06-04T21:17:04.313472,15.30889865,.00120298,97.5092,221.3214,132.6483,227.5774,0,U,57178,999,16254,.50647942E-3,.15085E-3,0
MONITOR-3 (RS58S),2023-091Q,2026-06-04T21:13:37.294752,15.27581832,.00128879,97.5083,219.2424,138.9568,221.2643,0,U,57180,999,16241,.44122476E-3,.1186E-3,0
MONITOR-4 (RS57S),2023-091S,2026-06-04T22:18:49.974048,15.27680916,.00128334,97.5077,219.2585,139.2345,220.9857,0,U,57182,999,16242,.46433788E-3,.12523E-3,0
MONITOR-2 (RS39S),2023-091U,2026-06-04T22:14:56.421024,15.18791166,.00121362,97.5073,214.2899,149.0754,211.1197,0,U,57184,999,16209,.28556128E-3,.5882E-4,0
SVYATOBOR 1 (RS60S),2023-091X,2026-06-04T22:22:41.638368,15.26397485,.00107224,97.5089,219.6832,131.4142,228.8019,0,U,57187,999,16244,.42228638E-3,.10937E-3,0
HORS 1,2023-091Y,2026-06-04T22:03:04.032288,15.26498127,.00102419,97.5068,219.4338,130.8246,229.3882,0,U,57188,999,16244,.42207985E-3,.10964E-3,0
VIZARD-METEO (RS38S),2023-091Z,2026-06-04T21:34:13.729728,15.35617444,.00087461,97.5092,225.1412,113.9484,246.2676,0,U,57189,999,16280,.538477E-3,.18609E-3,0
SITRO-AIS 6 (CHIRKIN),2023-091AC,2026-06-04T21:59:22.323840,15.25690581,.00127779,97.5069,218.8850,144.5279,215.6811,0,U,57192,999,16241,.46753474E-3,.11871E-3,0
SITRO-AIS 8 (ANOKHIN),2023-091AD,2026-06-04T22:30:55.539648,15.31789962,.00117444,97.5058,221.2630,137.6732,222.5418,0,U,57193,999,16257,.54441936E-3,.16684E-3,0
SITRO-AIS 7 (FARTUSHNIY),2023-091AE,2026-06-04T22:00:19.379808,15.25384627,.00126107,97.5067,218.7168,145.4239,214.7822,0,U,57194,999,16240,.46567211E-3,.11714E-3,0
AVION KALUGA 650,2023-091AF,2026-06-04T22:04:34.709952,15.20216164,.00113646,97.5091,215.5467,146.9567,213.2380,0,U,57195,999,16216,.32559776E-3,.7E-4,0
HORS 2,2023-091AG,2026-06-04T21:11:00.277440,15.31560202,.00095216,97.5089,222.7473,124.1375,236.0771,0,U,57196,999,16264,.51592995E-3,.1568E-3,0
A-SEANSAT-PG1,2023-091AH,2026-06-04T21:35:46.957920,15.36514885,.00086177,97.5082,225.2229,120.9558,239.2533,0,U,57197,999,16282,.57210153E-3,.20357E-3,0
SITRO-AIS 10 (BURDAEV),2023-091AK,2026-06-04T21:22:27.744960,15.38123994,.00079911,97.5080,226.1434,116.3362,243.8705,0,U,57199,999,16287,.6201812E-3,.23257E-3,0
SITRO-AIS 9 (SHCHUKIN),2023-091AM,2026-06-04T21:54:56.567808,15.37653049,.00082231,97.5078,225.9060,116.2979,243.9111,0,U,57201,999,16286,.61727785E-3,.22797E-3,0
UTMN 2 (RS27S),2023-091AP,2026-06-04T21:52:07.557312,15.31737177,.00094782,97.5088,222.9649,120.1397,240.0785,0,U,57203,999,16266,.46996164E-3,.14353E-3,0
SITRO-AIS 12 (SMIRENNIY),2023-091AQ,2026-06-04T21:44:46.139712,15.37941304,.00078721,97.5093,226.3584,111.5714,248.6370,0,U,57204,999,16288,.60980501E-3,.22729E-3,0
SITRO-AIS 11 (SHEFFER),2023-091AU,2026-06-04T22:08:54.963168,15.38355062,.00077949,97.5090,226.6144,111.3417,248.8661,0,U,57208,999,16290,.63302677E-3,.23921E-3,0
H2SAT (HEINRICH HERTZ),2023-093A,2026-06-04T03:17:58.373952,1.00272490,.00009749,0.0448,123.4904,332.0680,207.2004,0,U,57213,999,1078,0,.14E-6,0
KUZGTU 1 (RS47S),2023-091AV,2026-06-04T22:22:57.298368,15.29565902,.00121821,97.5064,220.2903,135.8402,224.3813,0,U,57217,999,16250,.50122603E-3,.14328E-3,0
QIANKUN-1,2023-103B,2026-06-04T17:21:23.780160,16.07676952,.00255273,96.1570,201.4333,146.8008,213.4886,0,U,57422,999,16529,.25732611E-4,.21052E-3,.1855709E-5
FENGYUN 3F,2023-111A,2026-06-04T22:11:29.370336,14.19936990,.00015699,98.6837,226.1616,102.2191,257.9161,0,U,57490,999,14712,.55014756E-4,.73E-6,0
METEOR 2-1 DEB,1975-064F,2026-05-27T08:46:58.329696,14.29312775,.00089226,81.2776,20.0937,110.2601,249.9540,0,U,57492,999,40001,.26148689E-2,.6671E-4,0
HJ-2F,2023-116A,2026-06-04T23:02:25.843776,15.22139169,.00105726,97.3845,161.3934,87.2250,273.0197,0,U,57519,999,15689,.41575747E-3,.9481E-4,0
XRISM,2023-137A,2026-06-02T06:36:16.681248,15.12327778,.00076942,31.0020,96.1840,175.1081,184.9634,0,U,57800,999,15060,.31044403E-3,.5615E-4,0
METEOR-M2 4,2024-039A,2026-06-04T22:39:14.085792,14.22428243,.00065624,98.7006,115.3962,196.6759,163.4204,0,U,59051,999,11752,.28442137E-4,.2E-6,0
GRBBETA,2024-128C,2026-06-04T17:49:09.395040,15.06546882,.00423545,61.9904,259.9266,132.1755,228.2947,0,U,60237,999,10439,.34080333E-3,.4952E-4,0
TRANSPORTER-11 OBJECT A,2024-149A,2026-06-04T03:53:45.121920,15.32685664,.000174,97.3731,235.1344,255.7071,104.3978,0,U,60468,999,10006,.31205874E-3,.9774E-4,0
WARATAH SEED-1,2024-149B,2026-06-04T17:33:28.703808,15.35621341,.00003697,97.3687,236.2977,230.9911,129.1300,0,U,60469,999,10020,.42113251E-3,.14515E-3,0
PHISAT 2,2024-149C,2026-06-04T16:39:35.501760,15.30870637,.00002367,97.3754,234.9820,24.0227,336.1025,0,U,60470,999,10008,.28337032E-3,.8378E-4,0
LEMUR-2-TOMATOKECHUP,2024-149D,2026-06-04T22:10:50.493792,15.35767551,.0000297,97.3797,237.9426,225.0802,135.0418,0,U,60471,999,10028,.36407564E-3,.12593E-3,0
CONNECTA IOT-1,2024-149E,2026-06-04T03:45:39.851136,15.23436180,.00014889,97.3757,231.6689,20.3740,339.7556,0,U,60472,999,9981,.21473525E-3,.5045E-4,0
LOPEN,2024-149F,2026-06-04T10:56:13.233408,15.39307836,.00004821,97.3776,238.7276,24.4909,335.6360,0,U,60473,999,10030,.45540005E-3,.17698E-3,0
ROCK,2024-149G,2026-06-03T23:41:34.098144,15.39289776,.00002576,97.3776,238.2728,344.2354,15.8884,0,U,60474,999,10023,.43893971E-3,.17044E-3,0
CONNECTA IOT-3,2024-149H,2026-06-04T10:34:55.523424,15.23450468,.00018554,97.3732,231.7053,342.4926,17.6246,0,U,60475,999,9986,.21206817E-3,.4983E-4,0
QUBE,2024-149J,2026-06-04T16:31:57.158400,15.46621398,.00009323,97.3776,241.8868,246.7233,113.3919,0,U,60476,999,10053,.51802521E-3,.25772E-3,0
WREN-1,2024-149L,2026-06-04T11:23:17.119680,15.41046642,.00029542,97.3763,239.4588,314.4494,45.6510,0,U,60478,999,10036,.57058165E-3,.23523E-3,0
TOMORROW-S1,2024-149M,2026-06-04T15:59:10.245120,15.32536144,.0001027,97.3748,236.1799,309.1986,50.9165,0,U,60479,999,10017,.27190577E-3,.8465E-4,0
